ONEWEB-0199             
1 48234U 21031AA  25040.93162289  .00000160  00000+0  39783-3 0  9998
2 48234  87.9009  27.5630 0001771  91.7447 268.3886 13.14504468183590
ONEWEB-0203             
1 48235U 21031AB  25040.92210840 -.00000021  00000+0 -90003-4 0  9996
2 48235  87.9008  27.5672 0002005  97.8673 262.2684 13.14504444183600
ONEWEB-0197             
1 48236U 21031AC  25041.50647883 -.00000018  00000+0 -81955-4 0  9995
2 48236  87.9011  27.4616 0001517  79.6974 280.4327 13.14503063183591
ONEWEB-0194             
1 48237U 21031AD  25041.48506292  .00000239  00000+0  61066-3 0  9994
2 48237  87.9012  27.4609 0001820  95.0551 265.0786 13.14503708183768
ONEWEB-0193             
1 48238U 21031AE  25040.96809589  .00000074  00000+0  16477-3 0  9995
2 48238  87.9012  27.5717 0001953  87.9651 272.1702 13.14503402183643
ONEWEB-0191             
1 48239U 21031AF  25041.51200666 -.00000114  00000+0 -34141-3 0  9994
2 48239  87.9009  27.4395 0001938  86.6363 273.4988 13.14500843183578
ONEWEB-0195             
1 48240U 21031AG  25041.48903181  .00000234  00000+0  59593-3 0  9993
2 48240  87.9009  27.4427 0002246  81.4700 278.6684 13.14503558183551
ONEWEB-0201             
1 48241U 21031AH  25041.47794180  .00000195  00000+0  49157-3 0  9991
2 48241  87.9011  27.4874 0001943  82.9382 277.1969 13.14502685183781
